{"fetched_at":"2026-07-06T08:46:38.495Z","source":"https://celestrak.org/NORAD/elements/gp.php?GROUP=oneweb&FORMAT=JSON","constellation":"oneweb","records":[{"OBJECT_NAME":"ONEWEB-0205","OBJECT_ID":"2021-031S","EPOCH":"2026-07-05T07:55:04.191168","CLASSIFICATION_TYPE":"U","MEAN_MOTION":13.14502636,"ECCENTRICITY":0.0002309,"INCLINATION":87.8978,"RA_OF_ASC_NODE":286.0831,"ARG_OF_PERICENTER":100.0132,"MEAN_ANOMALY":260.1258,"EPHEMERIS_TYPE":0,"NORAD_CAT_ID":48226,"ELEMENT_SET_NO":999,"REV_AT_EPOCH":25065,"BSTAR":0.00039181,"MEAN_MOTION_DOT":0.00000158,"MEAN_MOTION_DDOT":0},{"OBJECT_NAME":"ONEWEB-0206","OBJECT_ID":"2021-031T","EPOCH":"2026-07-05T07:16:13.977984","CLASSIFICATION_TYPE":"U","MEAN_MOTION":13.14501577,"ECCENTRICITY":0.0001841,"INCLINATION":87.8977,"RA_OF_ASC_NODE":286.0892,"ARG_OF_PERICENTER":100.6871,"MEAN_ANOMALY":259.4467,"EPHEMERIS_TYPE":0,"NORAD_CAT_ID":48227,"ELEMENT_SET_NO":999,"REV_AT_EPOCH":25060,"BSTAR":-0.0005939,"MEAN_MOTION_DOT":-0.00000207,"MEAN_MOTION_DDOT":0},{"OBJECT_NAME":"ONEWEB-0182","OBJECT_ID":"2021-031U","EPOCH":"2026-07-05T07:09:23.641056","CLASSIFICATION_TYPE":"U","MEAN_MOTION":13.14503694,"ECCENTRICITY":0.0001973,"INCLINATION":87.8973,"RA_OF_ASC_NODE":286.0971,"ARG_OF_PERICENTER":93.7135,"MEAN_ANOMALY":266.422,"EPHEMERIS_TYPE":0,"NORAD_CAT_ID":48228,"ELEMENT_SET_NO":999,"REV_AT_EPOCH":25081,"BSTAR":-0.00043551,"MEAN_MOTION_DOT":-0.00000149,"MEAN_MOTION_DDOT":0},{"OBJECT_NAME":"ONEWEB-0186","OBJECT_ID":"2021-031V","EPOCH":"2026-07-05T07:25:22.866816","CLASSIFICATION_TYPE":"U","MEAN_MOTION":13.14502776,"ECCENTRICITY":0.00021,"INCLINATION":87.8983,"RA_OF_ASC_NODE":286.0874,"ARG_OF_PERICENTER":99.3447,"MEAN_ANOMALY":260.792,"EPHEMERIS_TYPE":0,"NORAD_CAT_ID":48229,"ELEMENT_SET_NO":999,"REV_AT_EPOCH":25076,"BSTAR":-0.00056542,"MEAN_MOTION_DOT":-0.00000197,"MEAN_MOTION_DDOT":0},{"OBJECT_NAME":"ONEWEB-0181","OBJECT_ID":"2021-031W","EPOCH":"2026-07-05T06:53:23.815680","CLASSIFICATION_TYPE":"U","MEAN_MOTION":13.14504692,"ECCENTRICITY":0.0002208,"INCLINATION":87.8964,"RA_OF_ASC_NODE":286.1176,"ARG_OF_PERICENTER":102.3247,"MEAN_ANOMALY":257.813,"EPHEMERIS_TYPE":0,"NORAD_CAT_ID":48230,"ELEMENT_SET_NO":999,"REV_AT_EPOCH":25061,"BSTAR":0.00010819,"MEAN_MOTION_DOT":5.3e-7,"MEAN_MOTION_DDOT":0},{"OBJECT_NAME":"ONEWEB-0188","OBJECT_ID":"2021-031X","EPOCH":"2026-07-05T07:48:12.621312","CLASSIFICATION_TYPE":"U","MEAN_MOTION":13.14501903,"ECCENTRICITY":0.0002049,"INCLINATION":87.8964,"RA_OF_ASC_NODE":286.1096,"ARG_OF_PERICENTER":99.275,"MEAN_ANOMALY":260.8611,"EPHEMERIS_TYPE":0,"NORAD_CAT_ID":48231,"ELEMENT_SET_NO":999,"REV_AT_EPOCH":25052,"BSTAR":0.000036374,"MEAN_MOTION_DOT":2.6e-7,"MEAN_MOTION_DDOT":0},{"OBJECT_NAME":"ONEWEB-0220","OBJECT_ID":"2021-031Y","EPOCH":"2026-07-05T06:55:41.022336","CLASSIFICATION_TYPE":"U","MEAN_MOTION":13.14503656,"ECCENTRICITY":0.0002316,"INCLINATION":87.8983,"RA_OF_ASC_NODE":286.0926,"ARG_OF_PERICENTER":96.7051,"MEAN_ANOMALY":263.4342,"EPHEMERIS_TYPE":0,"NORAD_CAT_ID":48232,"ELEMENT_SET_NO":999,"REV_AT_EPOCH":25078,"BSTAR":0.000014717,"MEAN_MOTION_DOT":1.8e-7,"MEAN_MOTION_DDOT":0},{"OBJECT_NAME":"ONEWEB-0165","OBJECT_ID":"2021-031Z","EPOCH":"2026-07-05T07:36:48.710016","CLASSIFICATION_TYPE":"U","MEAN_MOTION":13.14502975,"ECCENTRICITY":0.0002342,"INCLINATION":87.8972,"RA_OF_ASC_NODE":286.0987,"ARG_OF_PERICENTER":106.7811,"MEAN_ANOMALY":253.3576,"EPHEMERIS_TYPE":0,"NORAD_CAT_ID":48233,"ELEMENT_SET_NO":999,"REV_AT_EPOCH":25074,"BSTAR":-0.00047124,"MEAN_MOTION_DOT":-0.00000162,"MEAN_MOTION_DDOT":0},{"OBJECT_NAME":"ONEWEB-0199","OBJECT_ID":"2021-031AA","EPOCH":"2026-07-05T07:13:57.580896","CLASSIFICATION_TYPE":"U","MEAN_MOTION":13.14501904,"ECCENTRICITY":0.0001832,"INCLINATION":87.8981,"RA_OF_ASC_NODE":286.0886,"ARG_OF_PERICENTER":99.3815,"MEAN_ANOMALY":260.7522,"EPHEMERIS_TYPE":0,"NORAD_CAT_ID":48234,"ELEMENT_SET_NO":999,"REV_AT_EPOCH":25064,"BSTAR":-0.00052627,"MEAN_MOTION_DOT":-0.00000182,"MEAN_MOTION_DDOT":0},{"OBJECT_NAME":"ONEWEB-0203","OBJECT_ID":"2021-031AB","EPOCH":"2026-07-05T07:00:14.817888","CLASSIFICATION_TYPE":"U","MEAN_MOTION":13.14500916,"ECCENTRICITY":0.0001944,"INCLINATION":87.8979,"RA_OF_ASC_NODE":286.0935,"ARG_OF_PERICENTER":105.6133,"MEAN_ANOMALY":254.5212,"EPHEMERIS_TYPE":0,"NORAD_CAT_ID":48235,"ELEMENT_SET_NO":999,"REV_AT_EPOCH":25065,"BSTAR":-0.00018564,"MEAN_MOTION_DOT":-5.6e-7,"MEAN_MOTION_DDOT":0},{"OBJECT_NAME":"ONEWEB-0197","OBJECT_ID":"2021-031AC","EPOCH":"2026-07-05T06:23:31.172064","CLASSIFICATION_TYPE":"U","MEAN_MOTION":13.14501526,"ECCENTRICITY":0.0002054,"INCLINATION":87.8968,"RA_OF_ASC_NODE":286.0833,"ARG_OF_PERICENTER":92.7495,"MEAN_ANOMALY":267.387,"EPHEMERIS_TYPE":0,"NORAD_CAT_ID":48236,"ELEMENT_SET_NO":999,"REV_AT_EPOCH":25056,"BSTAR":0.00088697,"MEAN_MOTION_DOT":0.00000342,"MEAN_MOTION_DDOT":0},{"OBJECT_NAME":"ONEWEB-0194","OBJECT_ID":"2021-031AD","EPOCH":"2026-07-05T07:43:39.188640","CLASSIFICATION_TYPE":"U","MEAN_MOTION":13.14503777,"ECCENTRICITY":0.0001811,"INCLINATION":87.8974,"RA_OF_ASC_NODE":286.0951,"ARG_OF_PERICENTER":104.5053,"MEAN_ANOMALY":255.6278,"EPHEMERIS_TYPE":0,"NORAD_CAT_ID":48237,"ELEMENT_SET_NO":999,"REV_AT_EPOCH":25074,"BSTAR":-0.000056652,"MEAN_MOTION_DOT":-8e-8,"MEAN_MOTION_DDOT":0},{"OBJECT_NAME":"ONEWEB-0193","OBJECT_ID":"2021-031AE","EPOCH":"2026-07-05T06:16:52.713408","CLASSIFICATION_TYPE":"U","MEAN_MOTION":13.14501644,"ECCENTRICITY":0.0001611,"INCLINATION":87.8971,"RA_OF_ASC_NODE":286.0975,"ARG_OF_PERICENTER":107.4894,"MEAN_ANOMALY":252.6412,"EPHEMERIS_TYPE":0,"NORAD_CAT_ID":48238,"ELEMENT_SET_NO":999,"REV_AT_EPOCH":25068,"BSTAR":0.0007575,"MEAN_MOTION_DOT":0.00000294,"MEAN_MOTION_DDOT":0},{"OBJECT_NAME":"ONEWEB-0191","OBJECT_ID":"2021-031AF","EPOCH":"2026-07-05T06:32:53.206656","CLASSIFICATION_TYPE":"U","MEAN_MOTION":13.14506024,"ECCENTRICITY":0.0001993,"INCLINATION":87.8979,"RA_OF_ASC_NODE":286.095,"ARG_OF_PERICENTER":95.4853,"MEAN_ANOMALY":264.6504,"EPHEMERIS_TYPE":0,"NORAD_CAT_ID":48239,"ELEMENT_SET_NO":999,"REV_AT_EPOCH":25054,"BSTAR":0.00080546,"MEAN_MOTION_DOT":0.00000311,"MEAN_MOTION_DDOT":0},{"OBJECT_NAME":"ONEWEB-0195","OBJECT_ID":"2021-031AG","EPOCH":"2026-07-05T07:49:21.908064","CLASSIFICATION_TYPE":"U","MEAN_MOTION":13.14503152,"ECCENTRICITY":0.0002354,"INCLINATION":87.8978,"RA_OF_ASC_NODE":286.0851,"ARG_OF_PERICENTER":104.8792,"MEAN_ANOMALY":255.2599,"EPHEMERIS_TYPE":0,"NORAD_CAT_ID":48240,"ELEMENT_SET_NO":999,"REV_AT_EPOCH":25053,"BSTAR":-0.000025057,"MEAN_MOTION_DOT":4e-8,"MEAN_MOTION_DDOT":0},{"OBJECT_NAME":"ONEWEB-0201","OBJECT_ID":"2021-031AH","EPOCH":"2026-07-05T07:32:25.221984","CLASSIFICATION_TYPE":"U","MEAN_MOTION":13.14502354,"ECCENTRICITY":0.0002137,"INCLINATION":87.8972,"RA_OF_ASC_NODE":286.1019,"ARG_OF_PERICENTER":92.7937,"MEAN_ANOMALY":267.3437,"EPHEMERIS_TYPE":0,"NORAD_CAT_ID":48241,"ELEMENT_SET_NO":999,"REV_AT_EPOCH":25076,"BSTAR":-0.00047107,"MEAN_MOTION_DOT":-0.00000162,"MEAN_MOTION_DDOT":0}]}
