[
  {
    "name": "ONEWEB-0205",
    "noradId": "48226",
    "line1": "1 48226U 21031S   26186.32990962  .00000158  00000+0  39181-3 0  9990",
    "line2": "2 48226  87.8978 286.0831 0002309 100.0132 260.1258 13.14502636250653"
  },
  {
    "name": "ONEWEB-0206",
    "noradId": "48227",
    "line1": "1 48227U 21031T   26186.30293956 -.00000207  00000+0 -59390-3 0  9999",
    "line2": "2 48227  87.8977 286.0892 0001841 100.6871 259.4467 13.14501577250607"
  },
  {
    "name": "ONEWEB-0182",
    "noradId": "48228",
    "line1": "1 48228U 21031U   26186.29819029 -.00000149  00000+0 -43551-3 0  9990",
    "line2": "2 48228  87.8973 286.0971 0001973  93.7135 266.4220 13.14503694250813"
  },
  {
    "name": "ONEWEB-0186",
    "noradId": "48229",
    "line1": "1 48229U 21031V   26186.30929244 -.00000197  00000+0 -56542-3 0  9991",
    "line2": "2 48229  87.8983 286.0874 0002100  99.3447 260.7920 13.14502776250766"
  },
  {
    "name": "ONEWEB-0181",
    "noradId": "48230",
    "line1": "1 48230U 21031W   26186.28708120  .00000053  00000+0  10819-3 0  9994",
    "line2": "2 48230  87.8964 286.1176 0002208 102.3247 257.8130 13.14504692250618"
  },
  {
    "name": "ONEWEB-0188",
    "noradId": "48231",
    "line1": "1 48231U 21031X   26186.32514608  .00000026  00000+0  36374-4 0  9991",
    "line2": "2 48231  87.8964 286.1096 0002049  99.2750 260.8611 13.14501903250526"
  },
  {
    "name": "ONEWEB-0220",
    "noradId": "48232",
    "line1": "1 48232U 21031Y   26186.28866924  .00000018  00000+0  14717-4 0  9996",
    "line2": "2 48232  87.8983 286.0926 0002316  96.7051 263.4342 13.14503656250787"
  },
  {
    "name": "ONEWEB-0165",
    "noradId": "48233",
    "line1": "1 48233U 21031Z   26186.31723044 -.00000162  00000+0 -47124-3 0  9995",
    "line2": "2 48233  87.8972 286.0987 0002342 106.7811 253.3576 13.14502975250744"
  },
  {
    "name": "ONEWEB-0199",
    "noradId": "48234",
    "line1": "1 48234U 21031AA  26186.30136089 -.00000182  00000+0 -52627-3 0  9998",
    "line2": "2 48234  87.8981 286.0886 0001832  99.3815 260.7522 13.14501904250640"
  },
  {
    "name": "ONEWEB-0203",
    "noradId": "48235",
    "line1": "1 48235U 21031AB  26186.29183817 -.00000056  00000+0 -18564-3 0  9990",
    "line2": "2 48235  87.8979 286.0935 0001944 105.6133 254.5212 13.14500916250651"
  },
  {
    "name": "ONEWEB-0197",
    "noradId": "48236",
    "line1": "1 48236U 21031AC  26186.26633301  .00000342  00000+0  88697-3 0  9996",
    "line2": "2 48236  87.8968 286.0833 0002054  92.7495 267.3870 13.14501526250567"
  },
  {
    "name": "ONEWEB-0194",
    "noradId": "48237",
    "line1": "1 48237U 21031AD  26186.32198135 -.00000008  00000+0 -56652-4 0  9993",
    "line2": "2 48237  87.8974 286.0951 0001811 104.5053 255.6278 13.14503777250740"
  },
  {
    "name": "ONEWEB-0193",
    "noradId": "48238",
    "line1": "1 48238U 21031AE  26186.26172122  .00000294  00000+0  75750-3 0  9999",
    "line2": "2 48238  87.8971 286.0975 0001611 107.4894 252.6412 13.14501644250688"
  },
  {
    "name": "ONEWEB-0191",
    "noradId": "48239",
    "line1": "1 48239U 21031AF  26186.27283804  .00000311  00000+0  80546-3 0  9990",
    "line2": "2 48239  87.8979 286.0950 0001993  95.4853 264.6504 13.14506024250541"
  },
  {
    "name": "ONEWEB-0195",
    "noradId": "48240",
    "line1": "1 48240U 21031AG  26186.32594801  .00000004  00000+0 -25057-4 0  9997",
    "line2": "2 48240  87.8978 286.0851 0002354 104.8792 255.2599 13.14503152250539"
  },
  {
    "name": "ONEWEB-0201",
    "noradId": "48241",
    "line1": "1 48241U 21031AH  26186.31418081 -.00000162  00000+0 -47107-3 0  9997",
    "line2": "2 48241  87.8972 286.1019 0002137  92.7937 267.3437 13.14502354250769"
  }
]